{"type": "FeatureCollection", "features": [ {"type": "Feature", "properties": {"norad_id": 43107, "name": "BEIDOU-3 M7 (C27)", "group": "gnss", "lat": 43.61940103128173, "lon": -8.71382466778483, "alt_km": 21514.407487289132, "timestamp": "2025-12-22T05:49:03.742390+00:00", "meta": {"OBJECT_NAME": "BEIDOU-3 M7 (C27)", "OBJECT_ID": "2018-003A", "EPOCH": "2025-12-21T14:51:30.928608", "MEAN_MOTION": 1.86232633, "ECCENTRICITY": 0.0002983, "INCLINATION": 54.4889, "RA_OF_ASC_NODE": 308.5062, "ARG_OF_PERICENTER": 66.7112, "MEAN_ANOMALY": 293.3168, "EPHEMERIS_TYPE": 0, "CLASSIFICATION_TYPE": "U", "NORAD_CAT_ID": 43107, "ELEMENT_SET_NO": 999, "REV_AT_EPOCH": 5404, "BSTAR": 0, "MEAN_MOTION_DOT": -6.2e-07, "MEAN_MOTION_DDOT": 0}, "tle": {"line1": "1 43107U 18003A   25355.61910797 -.00000062  00000+0  00000+0 0  9994", "line2": "2 43107  54.4889 308.5062 0002983  66.7112 293.3168  1.86232633 54043"}}, "geometry": {"type": "Point", "coordinates": [-8.71382466778483, 43.61940103128173]}}, {"type": "Feature", "properties": {"norad_id": 43108, "name": "BEIDOU-3 M8 (C28)", "group": "gnss", "lat": 54.2160617553465, "lon": 46.60193668646251, "alt_km": 21534.53841447375, "timestamp": "2025-12-22T05:49:03.742402+00:00", "meta": {"OBJECT_NAME": "BEIDOU-3 M8 (C28)", "OBJECT_ID": "2018-003B", "EPOCH": "2025-12-21T00:39:03.607776", "MEAN_MOTION": 1.86231132, "ECCENTRICITY": 0.00046009, "INCLINATION": 54.4823, "RA_OF_ASC_NODE": 308.5094, "ARG_OF_PERICENTER": 278.1656, "MEAN_ANOMALY": 81.7767, "EPHEMERIS_TYPE": 0, "CLASSIFICATION_TYPE": "U", "NORAD_CAT_ID": 43108, "ELEMENT_SET_NO": 999, "REV_AT_EPOCH": 5404, "BSTAR": 0, "MEAN_MOTION_DOT": -6.6e-07, "MEAN_MOTION_DDOT": 0}, "tle": {"line1": "1 43108U 18003B   25355.02712509 -.00000066  00000+0  00000+0 0  9995", "line2": "2 43108  54.4823 308.5094 0004600 278.1656  81.7767  1.86231132 54044"}}, "geometry": {"type": "Point", "coordinates": [46.60193668646251, 54.2160617553465]}}, {"type": "Feature", "properties": {"norad_id": 43207, "name": "BEIDOU-3 M4 (C22)", "group": "gnss", "lat": 17.7953998824956, "lon": -123.24995821175317, "alt_km": 21536.52529354968, "timestamp": "2025-12-22T05:49:03.742415+00:00", "meta": {"OBJECT_NAME": "BEIDOU-3 M4 (C22)", "OBJECT_ID": "2018-018A", "EPOCH": "2025-12-20T09:29:07.105632", "MEAN_MOTION": 1.86231247, "ECCENTRICITY": 0.0004167, "INCLINATION": 56.4917, "RA_OF_ASC_NODE": 69.0512, "ARG_OF_PERICENTER": 3.4046, "MEAN_ANOMALY": 356.639, "EPHEMERIS_TYPE": 0, "CLASSIFICATION_TYPE": "U", "NORAD_CAT_ID": 43207, "ELEMENT_SET_NO": 999, "REV_AT_EPOCH": 5341, "BSTAR": 0, "MEAN_MOTION_DOT": -4.3e-07, "MEAN_MOTION_DDOT": 0}, "tle": {"line1": "1 43207U 18018A   25354.39522113 -.00000043  00000+0  00000+0 0  9995", "line2": "2 43207  56.4917  69.0512 0004167   3.4046 356.6390  1.86231247 53417"}}, "geometry": {"type": "Point", "coordinates": [-123.24995821175317, 17.7953998824956]}}, {"type": "Feature", "properties": {"norad_id": 43208, "name": "BEIDOU-3 M3 (C21)", "group": "gnss", "lat": 49.712873803720406, "lon": -162.2847727217399, "alt_km": 21540.515002229145, "timestamp": "2025-12-22T05:49:03.742427+00:00", "meta": {"OBJECT_NAME": "BEIDOU-3 M3 (C21)", "OBJECT_ID": "2018-018B", "EPOCH": "2025-12-21T12:51:19.783296", "MEAN_MOTION": 1.86231409, "ECCENTRICITY": 0.00070153, "INCLINATION": 56.4924, "RA_OF_ASC_NODE": 69.0175, "ARG_OF_PERICENTER": 313.8809, "MEAN_ANOMALY": 46.108, "EPHEMERIS_TYPE": 0, "CLASSIFICATION_TYPE": "U", "NORAD_CAT_ID": 43208, "ELEMENT_SET_NO": 999, "REV_AT_EPOCH": 5343, "BSTAR": 0, "MEAN_MOTION_DOT": -3.4e-07, "MEAN_MOTION_DDOT": 0}, "tle": {"line1": "1 43208U 18018B   25355.53564564 -.00000034  00000+0  00000+0 0  9999", "line2": "2 43208  56.4924  69.0175 0007015 313.8809  46.1080  1.86231409 53430"}}, "geometry": {"type": "Point", "coordinates": [-162.2847727217399, 49.712873803720406]}}, {"type": "Feature", "properties": {"norad_id": 43245, "name": "BEIDOU-3 M9 (C29)", "group": "gnss", "lat": -24.86366760072292, "lon": -73.28361959898578, "alt_km": 21528.212074675554, "timestamp": "2025-12-22T05:49:03.742439+00:00", "meta": {"OBJECT_NAME": "BEIDOU-3 M9 (C29)", "OBJECT_ID": "2018-029A", "EPOCH": "2025-12-21T18:02:44.406240", "MEAN_MOTION": 1.86228375, "ECCENTRICITY": 0.0001526, "INCLINATION": 54.3576, "RA_OF_ASC_NODE": 306.154, "ARG_OF_PERICENTER": 290.9147, "MEAN_ANOMALY": 69.068, "EPHEMERIS_TYPE": 0, "CLASSIFICATION_TYPE": "U", "NORAD_CAT_ID": 43245, "ELEMENT_SET_NO": 999, "REV_AT_EPOCH": 5259, "BSTAR": 0, "MEAN_MOTION_DOT": -5.9e-07, "MEAN_MOTION_DDOT": 0}, "tle": {"line1": "1 43245U 18029A   25355.75190285 -.00000059  00000+0  00000+0 0  9998", "line2": "2 43245  54.3576 306.1540 0001526 290.9147  69.0680  1.86228375 52597"}}, "geometry": {"type": "Point", "coordinates": [-73.28361959898578, -24.86366760072292]}}, {"type": "Feature", "properties": {"norad_id": 43246, "name": "BEIDOU-3 M10 (C30)", "group": "gnss", "lat": 9.969889645750305, "lon": -46.61934198532963, "alt_km": 21515.35534168349, "timestamp": "2025-12-22T05:49:03.742450+00:00", "meta": {"OBJECT_NAME": "BEIDOU-3 M10 (C30)", "OBJECT_ID": "2018-029B", "EPOCH": "2025-12-21T16:29:26.831040", "MEAN_MOTION": 1.86229251, "ECCENTRICITY": 0.0004288, "INCLINATION": 54.3549, "RA_OF_ASC_NODE": 306.1829, "ARG_OF_PERICENTER": 3.3353, "MEAN_ANOMALY": 356.6662, "EPHEMERIS_TYPE": 0, "CLASSIFICATION_TYPE": "U", "NORAD_CAT_ID": 43246, "ELEMENT_SET_NO": 999, "REV_AT_EPOCH": 5256, "BSTAR": 0, "MEAN_MOTION_DOT": -6e-07, "MEAN_MOTION_DDOT": 0}, "tle": {"line1": "1 43246U 18029B   25355.68711610 -.00000060  00000+0  00000+0 0  9994", "line2": "2 43246  54.3549 306.1829 0004288   3.3353 356.6662  1.86229251 52567"}}, "geometry": {"type": "Point", "coordinates": [-46.61934198532963, 9.969889645750305]}}, {"type": "Feature", "properties": {"norad_id": 43286, "name": "IRNSS-1I", "group": "gnss", "lat": 11.330634226323088, "lon": -124.05637896439906, "alt_km": 35705.48293820234, "timestamp": "2025-12-22T05:49:03.742461+00:00", "meta": {"OBJECT_NAME": "IRNSS-1I", "OBJECT_ID": "2018-035A", "EPOCH": "2025-12-20T19:47:21.482880", "MEAN_MOTION": 1.00273791, "ECCENTRICITY": 0.0021634, "INCLINATION": 29.167, "RA_OF_ASC_NODE": 76.974, "ARG_OF_PERICENTER": 186.9634, "MEAN_ANOMALY": 177.5378, "EPHEMERIS_TYPE": 0, "CLASSIFICATION_TYPE": "U", "NORAD_CAT_ID": 43286, "ELEMENT_SET_NO": 999, "REV_AT_EPOCH": 2829, "BSTAR": 0, "MEAN_MOTION_DOT": 8.3e-07, "MEAN_MOTION_DDOT": 0}, "tle": {"line1": "1 43286U 18035A   25354.82455420  .00000083  00000+0  00000+0 0  9998", "line2": "2 43286  29.1670  76.9740 0021634 186.9634 177.5378  1.00273791 28295"}}, "geometry": {"type": "Point", "coordinates": [-124.05637896439906, 11.330634226323088]}}, {"type": "Feature", "properties": {"norad_id": 43508, "name": "COSMOS 2527 (756)", "group": "gnss", "lat": 46.62484396445433, "lon": 108.6636918823964, "alt_km": 19147.069040363953, "timestamp": "2025-12-22T05:49:03.742473+00:00", "meta": {"OBJECT_NAME": "COSMOS 2527 (756)", "OBJECT_ID": "2018-053A", "EPOCH": "2025-12-20T18:22:11.791200", "MEAN_MOTION": 2.13102375, "ECCENTRICITY": 0.00088721, "INCLINATION": 65.4768, "RA_OF_ASC_NODE": 79.8631, "ARG_OF_PERICENTER": 227.1028, "MEAN_ANOMALY": 132.8569, "EPHEMERIS_TYPE": 0, "CLASSIFICATION_TYPE": "U", "NORAD_CAT_ID": 43508, "ELEMENT_SET_NO": 999, "REV_AT_EPOCH": 5847, "BSTAR": 0, "MEAN_MOTION_DOT": -1.4e-07, "MEAN_MOTION_DDOT": 0}, "tle": {"line1": "1 43508U 18053A   25354.76541425 -.00000014  00000+0  00000+0 0  9994", "line2": "2 43508  65.4768  79.8631 0008872 227.1028 132.8569  2.13102375 58471"}}, "geometry": {"type": "Point", "coordinates": [108.6636918823964, 46.62484396445433]}}, {"type": "Feature", "properties": {"norad_id": 43539, "name": "BEIDOU-2 IGSO-7 (C16)", "group": "gnss", "lat": 43.41027471712415, "lon": -56.680344365998685, "alt_km": 35930.838742037406, "timestamp": "2025-12-22T05:49:03.742484+00:00", "meta": {"OBJECT_NAME": "BEIDOU-2 IGSO-7 (C16)", "OBJECT_ID": "2018-057A", "EPOCH": "2025-12-15T07:47:07.120608", "MEAN_MOTION": 1.00256546, "ECCENTRICITY": 0.00926218, "INCLINATION": 55.1766, "RA_OF_ASC_NODE": 164.6485, "ARG_OF_PERICENTER": 235.2644, "MEAN_ANOMALY": 271.8458, "EPHEMERIS_TYPE": 0, "CLASSIFICATION_TYPE": "U", "NORAD_CAT_ID": 43539, "ELEMENT_SET_NO": 999, "REV_AT_EPOCH": 2728, "BSTAR": 0, "MEAN_MOTION_DOT": -2.3e-07, "MEAN_MOTION_DDOT": 0}, "tle": {"line1": "1 43539U 18057A   25349.32438797 -.00000023  00000+0  00000+0 0  9995", "line2": "2 43539  55.1766 164.6485 0092621 235.2644 271.8458  1.00256546 27289"}}, "geometry": {"type": "Point", "coordinates": [-56.680344365998685, 43.41027471712415]}}, {"type": "Feature", "properties": {"norad_id": 43564, "name": "GSAT0221 (GALILEO 25)", "group": "gnss", "lat": -16.832436349155316, "lon": 177.7898921112043, "alt_km": 23222.82860775107, "timestamp": "2025-12-22T05:49:03.742500+00:00", "meta": {"OBJECT_NAME": "GSAT0221 (GALILEO 25)", "OBJECT_ID": "2018-060A", "EPOCH": "2025-12-19T13:40:28.820064", "MEAN_MOTION": 1.70475889, "ECCENTRICITY": 0.0006721, "INCLINATION": 57.2264, "RA_OF_ASC_NODE": 346.6332, "ARG_OF_PERICENTER": 285.6827, "MEAN_ANOMALY": 74.2548, "EPHEMERIS_TYPE": 0, "CLASSIFICATION_TYPE": "U", "NORAD_CAT_ID": 43564, "ELEMENT_SET_NO": 999, "REV_AT_EPOCH": 4610, "BSTAR": 0, "MEAN_MOTION_DOT": -7.2e-07, "MEAN_MOTION_DDOT": 0}, "tle": {"line1": "1 43564U 18060A   25353.56977801 -.00000072  00000+0  00000+0 0  9996", "line2": "2 43564  57.2264 346.6332 0006721 285.6827  74.2548  1.70475889 46101"}}, "geometry": {"type": "Point", "coordinates": [177.7898921112043, -16.832436349155316]}}]}